STARLINK-31996          
1 60100U 24117K   26068.32344912  .00000690  00000+0  35447-4 0  9993
2 60100  53.1613  38.5903 0001267  87.5677 272.5469 15.30178795 96839
TOMORROW-S1             
1 60479U 24149M   26068.72470524  .00008620  00000+0  28856-3 0  9996
2 60479  97.3791 149.6044 0001819 207.2040 152.9106 15.31198362 86867
